[{"OBJECT_NAME":"STARLINK-36721","OBJECT_ID":"2026-036N","EPOCH":"2026-03-09T21:24:51.934464","MEAN_MOTION":15.82136016,"ECCENTRICITY":0.0001985,"INCLINATION":42.9991,"RA_OF_ASC_NODE":248.44,"ARG_OF_PERICENTER":280.3473,"MEAN_ANOMALY":79.7175,"EPHEMERIS_TYPE":0,"CLASSIFICATION_TYPE":"U","NORAD_CAT_ID":67916,"ELEMENT_SET_NO":999,"REV_AT_EPOCH":370,"BSTAR":0.0017024265,"MEAN_MOTION_DOT":0.00376056,"MEAN_MOTION_DDOT":0},{"OBJECT_NAME":"AZUR (GRS A)","OBJECT_ID":"1969-097A","EPOCH":"2026-03-09T21:41:10.048992","MEAN_MOTION":15.2598686,"ECCENTRICITY":0.02451425,"INCLINATION":102.6572,"RA_OF_ASC_NODE":142.7505,"ARG_OF_PERICENTER":125.1196,"MEAN_ANOMALY":237.3267,"EPHEMERIS_TYPE":0,"CLASSIFICATION_TYPE":"U","NORAD_CAT_ID":4221,"ELEMENT_SET_NO":999,"REV_AT_EPOCH":71023,"BSTAR":0.0010311441,"MEAN_MOTION_DOT":0.00065195,"MEAN_MOTION_DDOT":0}]
